[{"OBJECT_NAME":"COSMOS 2588","OBJECT_ID":"2025-109A","EPOCH":"2026-03-09T19:28:59.107008","MEAN_MOTION":15.29122656,"ECCENTRICITY":0.0005019,"INCLINATION":72.9704,"RA_OF_ASC_NODE":73.5401,"ARG_OF_PERICENTER":308.678,"MEAN_ANOMALY":51.3966,"EPHEMERIS_TYPE":0,"CLASSIFICATION_TYPE":"U","NORAD_CAT_ID":64095,"ELEMENT_SET_NO":999,"REV_AT_EPOCH":4442,"BSTAR":0.00032611,"MEAN_MOTION_DOT":9.169e-5,"MEAN_MOTION_DDOT":0},{"OBJECT_NAME":"STARLINK-35830","OBJECT_ID":"2025-247V","EPOCH":"2026-03-09T13:35:23.927424","MEAN_MOTION":15.30187075,"ECCENTRICITY":0.000101,"INCLINATION":53.1572,"RA_OF_ASC_NODE":192.0895,"ARG_OF_PERICENTER":83.5422,"MEAN_ANOMALY":276.5694,"EPHEMERIS_TYPE":0,"CLASSIFICATION_TYPE":"U","NORAD_CAT_ID":66284,"ELEMENT_SET_NO":999,"REV_AT_EPOCH":2101,"BSTAR":0.00059804,"MEAN_MOTION_DOT":0.00017388,"MEAN_MOTION_DDOT":0}]
